NORAD_CAT_ID,OBJECT_NAME,OBJECT_TYPE,EPOCH,MEAN_MOTION,ECCENTRICITY,INCLINATION,RA_OF_ASC_NODE,ARG_OF_PERICENTER,MEAN_ANOMALY,BSTAR,MEAN_MOTION_DOT,MEAN_MOTION_DDOT,TLE_LINE0,TLE_LINE1,TLE_LINE2,SEMIMAJOR_AXIS,PERIOD,APOGEE,PERIGEE,DECAYED
53010.0,STARLINK-4263,PAYLOAD,2023-11-24 22:32:44,15.08841031,0.0001533,53.2164,246.3078,106.2612,253.8549,0.00012607,1.719e-05,0.0,0 STARLINK-4263,1 53010U 22076AA  23328.93940482  .00001719  00000-0  12607-3 0  9990,2 53010  53.2164 246.3078 0001533 106.2612 253.8549 15.08841031 76675,6917.877,95.437,540.803,538.682,0.0
53010.0,STARLINK-4263,PAYLOAD,2023-11-25 01:43:30,15.08846483,0.0001636,53.2167,245.713,110.1485,249.9684,0.00040319,6.136e-05,0.0,0 STARLINK-4263,1 53010U 22076AA  23329.07188427  .00006136  00000-0  40319-3 0  9998,2 53010  53.2167 245.7130 0001636 110.1485 249.9684 15.08846483 77163,6917.861,95.437,540.857,538.594,0.0
53010.0,STARLINK-4263,PAYLOAD,2023-11-25 04:54:16,15.08854984,0.0001718,53.2164,245.117,117.7743,242.3423,0.00064299,9.964e-05,0.0,0 STARLINK-4263,1 53010U 22076AA  23329.20436217  .00009964  00000-0  64299-3 0  9991,2 53010  53.2164 245.1170 0001718 117.7743 242.3423 15.08854984 76712,6917.835,95.437,540.888,538.511,0.0
53010.0,STARLINK-4263,PAYLOAD,2023-11-25 22:23:31,15.08855103,0.0001767,53.2165,241.8428,113.7746,246.3432,0.00055812,8.609e-05,0.0,0 STARLINK-4263,1 53010U 22076AA  23329.93299803  .00008609  00000-0  55812-3 0  9995,2 53010  53.2165 241.8428 0001767 113.7746 246.3432 15.08855103 76825,6917.834,95.437,540.922,538.477,0.0
53010.0,STARLINK-4263,PAYLOAD,2023-11-25 23:58:54,15.08859765,0.0001863,53.2164,241.5486,104.3492,255.7707,0.00053611,8.259e-05,0.0,0 STARLINK-4263,1 53010U 22076AA  23329.99923856  .00008259  00000-0  53611-3 0  9999,2 53010  53.2164 241.5486 0001863 104.3492 255.7707 15.08859765 77307,6917.82,95.436,540.974,538.396,0.0
53010.0,STARLINK-4263,PAYLOAD,2023-11-26 22:14:18,15.08834189,0.0002137,53.2156,237.3844,132.4597,227.6576,-0.0001284,-2.331e-05,0.0,0 STARLINK-4263,1 53010U 22076AA  23330.92660383 -.00002331  00000-0 -12840-3 0  9993,2 53010  53.2156 237.3844 0002137 132.4597 227.6576 15.08834189 76979,6917.898,95.438,541.242,538.285,0.0
53010.0,STARLINK-4263,PAYLOAD,2023-11-27 03:00:28,15.08826596,0.0001639,53.2153,236.4923,123.1924,236.9226,-8.9181e-05,-1.707e-05,0.0,0 STARLINK-4263,1 53010U 22076AA  23331.12532808 -.00001707  00000-0 -89181-4 0  9995,2 53010  53.2153 236.4923 0001639 123.1924 236.9226 15.08826596 77475,6917.921,95.438,540.92,538.653,0.0
53010.0,STARLINK-4263,PAYLOAD,2023-11-27 22:05:06,15.08839393,0.000139,53.2153,232.9287,109.0667,251.0476,0.00017938,2.568e-05,0.0,0 STARLINK-4263,1 53010U 22076AA  23331.92021114  .00002568  00000-0  17938-3 0  9990,2 53010  53.2153 232.9287 0001390 109.0667 251.0476 15.08839393 77126,6917.882,95.438,540.709,538.786,0.0
53010.0,STARLINK-4263,PAYLOAD,2023-11-28 02:51:15,15.08848111,0.0001579,53.2159,232.0331,115.979,244.1365,0.001128,0.00017714,0.0,0 STARLINK-4263,1 53010U 22076AA  23332.11892983  .00017714  00000-0  11280-2 0  9994,2 53010  53.2159 232.0331 0001579 115.9790 244.1365 15.08848111 77628,6917.856,95.437,540.813,538.628,0.0
53010.0,STARLINK-4263,PAYLOAD,2023-11-28 21:55:52,15.08848945,0.000208,53.2166,228.458,135.6499,224.466,0.00026577,3.945e-05,0.0,0 STARLINK-4263,1 53010U 22076AA  23332.91380667  .00003945  00000-0  26577-3 0  9990,2 53010  53.2166 228.4580 0002080 135.6499 224.4660 15.08848945 77279,6917.853,95.437,541.157,538.279,0.0
53010.0,STARLINK-4263,PAYLOAD,2023-11-28 23:31:16,15.08849066,0.0001712,53.2162,228.1608,115.2873,244.8297,0.0003774,5.725e-05,0.0,0 STARLINK-4263,1 53010U 22076AA  23332.98004870  .00005725  00000-0  37740-3 0  9998,2 53010  53.2162 228.1608 0001712 115.2873 244.8297 15.08849066 77754,6917.853,95.437,540.902,538.533,0.0
53010.0,STARLINK-4263,PAYLOAD,2023-11-29 20:11:16,15.08844414,0.0002557,53.2168,224.2921,136.2616,223.8579,0.00026707,3.965e-05,0.0,0 STARLINK-4263,1 53010U 22076AA  23333.84116452  .00003965  00000-0  26707-3 0  9999,2 53010  53.2168 224.2921 0002557 136.2616 223.8579 15.08844414 77887,6917.867,95.437,541.501,537.963,0.0
53010.0,STARLINK-4263,PAYLOAD,2023-11-30 23:12:50,15.08839818,0.0001525,53.2161,219.2363,90.4104,269.7063,0.00018353,2.634e-05,0.0,0 STARLINK-4263,1 53010U 22076AA  23334.96725310  .00002634  00000-0  18353-3 0  9992,2 53010  53.2161 219.2363 0001525  90.4104 269.7063 15.08839818 78050,6917.881,95.438,540.801,538.691,0.0
53010.0,STARLINK-4263,PAYLOAD,2023-12-01 19:52:51,15.08834133,0.0001741,53.2156,215.3817,129.7362,230.3783,5.1865e-05,5.37e-06,0.0,0 STARLINK-4263,1 53010U 22076AA  23335.82837840  .00000537  00000-0  51865-4 0  9996,2 53010  53.2156 215.3817 0001741 129.7362 230.3783 15.08834133 78189,6917.898,95.438,540.968,538.559,0.0
53010.0,STARLINK-4263,PAYLOAD,2023-12-01 21:28:15,15.08834722,0.000177,53.2161,215.0841,131.4653,228.6491,8.0024e-05,9.86e-06,0.0,0 STARLINK-4263,1 53010U 22076AA  23335.89461866  .00000986  00000-0  80024-4 0  9991,2 53010  53.2161 215.0841 0001770 131.4653 228.6491 15.08834722 77723,6917.897,95.438,540.986,538.537,0.0
53010.0,STARLINK-4263,PAYLOAD,2023-12-01 23:03:38,15.08831885,0.0001532,53.2157,214.788,125.5833,234.5302,3.4278e-05,2.57e-06,0.0,0 STARLINK-4263,1 53010U 22076AA  23335.96086060  .00000257  00000-0  34278-4 0  9999,2 53010  53.2157 214.7880 0001532 125.5833 234.5302 15.08831885 77732,6917.905,95.438,540.83,538.71,0.0
53010.0,STARLINK-4263,PAYLOAD,2023-12-02 22:54:24,15.08855932,0.0001033,53.2152,210.3306,89.7913,270.3198,0.00056339,8.694e-05,0.0,0 STARLINK-4263,1 53010U 22076AA  23336.95445397  .00008694  00000-0  56339-3 0  9995,2 53010  53.2152 210.3306 0001033  89.7913 270.3198 15.08855932 77884,6917.832,95.437,540.411,538.982,0.0
53010.0,STARLINK-4263,PAYLOAD,2023-12-03 02:05:11,15.08858578,0.0001063,53.2152,209.7345,83.4161,276.6952,0.00060525,9.363e-05,0.0,0 STARLINK-4263,1 53010U 22076AA  23337.08693303  .00009363  00000-0  60525-3 0  9998,2 53010  53.2152 209.7345 0001063  83.4161 276.6952 15.08858578 78379,6917.824,95.436,540.424,538.953,0.0
53010.0,STARLINK-4263,PAYLOAD,2023-12-03 19:34:26,15.0883902,0.0001527,53.2148,206.454,131.4083,228.704,-3.0058e-05,-7.66e-06,0.0,0 STARLINK-4263,1 53010U 22076AA  23337.81557921 -.00000766  00000-0 -30058-4 0  9993,2 53010  53.2148 206.4540 0001527 131.4083 228.7040 15.08839020 78486,6917.883,95.438,540.805,538.692,0.0
53010.0,STARLINK-4263,PAYLOAD,2023-12-04 00:20:35,15.08835367,0.0001095,53.2146,205.5704,87.7649,272.3469,-2.7733e-05,-7.29e-06,0.0,0 STARLINK-4263,1 53010U 22076AA  23338.01430342 -.00000729  00000-0 -27733-4 0  9998,2 53010  53.2146 205.5704 0001095  87.7649 272.3469 15.08835367 78511,6917.895,95.438,540.517,539.002,0.0
53010.0,STARLINK-4263,PAYLOAD,2023-12-05 00:11:22,15.0884707,0.0001051,53.2139,201.1088,94.044,266.0673,0.00031323,4.702e-05,0.0,0 STARLINK-4263,1 53010U 22076AA  23339.00789902  .00004702  00000-0  31323-3 0  9999,2 53010  53.2139 201.1088 0001051  94.0440 266.0673 15.08847070 78669,6917.859,95.437,540.451,538.997,0.0
53010.0,STARLINK-4263,PAYLOAD,2023-12-06 00:02:09,15.08845383,9.06e-05,53.2131,196.6486,89.8527,270.2569,0.00016531,2.345e-05,0.0,0 STARLINK-4263,1 53010U 22076AA  23340.00149765  .00002345  00000-0  16531-3 0  9993,2 53010  53.2131 196.6486 0000906  89.8527 270.2569 15.08845383 78810,6917.864,95.437,540.356,539.102,0.0
53010.0,STARLINK-4263,PAYLOAD,2023-12-06 23:52:56,15.08845865,0.0001141,53.2142,192.1877,78.267,281.845,0.00013001,1.782e-05,0.0,0 STARLINK-4263,1 53010U 22076AA  23340.99509660  .00001782  00000-0  13001-3 0  9998,2 53010  53.2142 192.1877 0001141  78.2670 281.8450 15.08845865 78968,6917.862,95.437,540.517,538.938,0.0
53010.0,STARLINK-4263,PAYLOAD,2023-12-07 14:11:24,15.08841134,0.0001118,53.2139,189.5103,79.639,280.4728,8.5849e-05,1.079e-05,0.0,0 STARLINK-4263,1 53010U 22076AA  23341.59125765  .00001079  00000-0  85849-4 0  9994,2 53010  53.2139 189.5103 0001118  79.6390 280.4728 15.08841134 78580,6917.877,95.437,540.515,538.969,0.0
53010.0,STARLINK-4263,PAYLOAD,2023-12-07 23:43:43,15.0884267,0.0001184,53.2141,187.727,76.6915,283.4209,0.00010084,1.317e-05,0.0,0 STARLINK-4263,1 53010U 22076AA  23341.98869724  .00001317  00000-0  10084-3 0  9990,2 53010  53.2141 187.7270 0001184  76.6915 283.4209 15.08842670 78641,6917.872,95.437,540.556,538.918,0.0
53010.0,STARLINK-4263,PAYLOAD,2023-12-09 23:25:17,15.08839247,0.0001375,53.2141,178.8055,78.9127,281.2019,2.3137e-05,8e-07,0.0,0 STARLINK-4263,1 53010U 22076AA  23343.97589848  .00000080  00000-0  23137-4 0  9997,2 53010  53.2141 178.8055 0001375  78.9127 281.2019 15.08839247 79412,6917.883,95.438,540.699,538.796,0.0
53010.0,STARLINK-4263,PAYLOAD,2023-12-10 20:05:18,15.08838119,0.000132,53.2154,174.9383,98.4814,261.6328,7.8435e-05,9.61e-06,0.0,0 STARLINK-4263,1 53010U 22076AA  23344.83701977  .00000961  00000-0  78435-4 0  9991,2 53010  53.2154 174.9383 0001320  98.4814 261.6328 15.08838119 79071,6917.886,95.438,540.664,538.838,0.0
53010.0,STARLINK-4263,PAYLOAD,2023-12-11 19:56:05,15.08839598,0.0001323,53.2154,170.4782,96.4771,263.6372,7.2153e-05,8.61e-06,0.0,0 STARLINK-4263,1 53010U 22076AA  23345.83062063  .00000861  00000-0  72153-4 0  9998,2 53010  53.2154 170.4782 0001323  96.4771 263.6372 15.08839598 79699,6917.882,95.438,540.662,538.831,0.0
53010.0,STARLINK-4263,PAYLOAD,2023-12-12 19:46:52,15.08839946,0.0001323,53.2156,166.0196,94.9132,265.2011,6.7276e-05,7.83e-06,0.0,0 STARLINK-4263,1 53010U 22076AA  23346.82422180  .00000783  00000-0  67276-4 0  9991,2 53010  53.2156 166.0196 0001323  94.9132 265.2011 15.08839946 79375,6917.881,95.438,540.661,538.83,0.0
53010.0,STARLINK-4263,PAYLOAD,2023-12-13 19:37:39,15.08847802,0.0001444,53.2182,161.5582,91.2532,268.8625,8.743e-05,1.104e-05,0.0,0 STARLINK-4263,1 53010U 22076AA  23347.81781814  .00001104  00000-0  87430-4 0  9995,2 53010  53.2182 161.5582 0001444  91.2532 268.8625 15.08847802 79999,6917.857,95.437,540.72,538.723,0.0
